O3B FM5                 
1 39188U 13031A   22253.43067574 -.00000028  00000+0  00000+0 0  9996
2 39188   0.0603  19.0866 0002592 153.5642 187.3522  5.00115260168210
O3B FM4                 
1 39189U 13031B   22253.28681954 -.00000028  00000+0  00000+0 0  9994
2 39189   0.0539 351.4740 0002553 180.6986 187.8305  5.00115759168219
O3B FM2                 
1 39190U 13031C   22252.97846547 -.00000028  00000+0  00000+0 0  9992
2 39190   0.0553 346.4586 0002580 184.5543 188.9908  5.00116834168262
O3B PFM                 
1 39191U 13031D   22253.40452996 -.00000028  00000+0  00000+0 0  9993
2 39191   0.0554  11.4889 0002648 158.3234 190.1923  5.00115647167846
O3B FM3                 
1 40079U 14038A   22253.25940572 -.00000028  00000+0  00000+0 0  9993
2 40079   0.0549 359.6779 0004947 158.9836 201.3583  5.00115317144217
O3B FM7                 
1 40080U 14038B   22253.40536768 -.00000028  00000+0  00000+0 0  9990
2 40080   0.0580 356.3628 0001507 217.8543 145.7723  5.00115433149053
O3B FM6                 
1 40081U 14038C   22253.23185372 -.00000028  00000+0  00000+0 0  9993
2 40081   0.0540 358.9768 0002692 170.8454 190.1824  5.00115332148994
O3B FM8                 
1 40082U 14038D   22253.48567547 -.00000028  00000+0  00000+0 0  9999
2 40082   0.0528 355.7250 0002652 171.6386 192.6422  5.00115591149114
O3B FM10                
1 40348U 14083A   22252.71216174 -.00000028  00000+0  00000+0 0  9996
2 40348   0.0512   8.2507 0002625 160.8701 190.8840  5.00115074141031
O3B FM11                
1 40349U 14083B   22253.52518293 -.00000028  00000+0  00000+0 0  9994
2 40349   0.0559   8.1379 0002436 177.2755 174.5832  5.00115345141097
O3B FM12                
1 40350U 14083C   22253.35249868 -.00000028  00000+0  00000+0 0  9996
2 40350   0.0553   7.3999 0002731 165.4281 187.1750  5.00115217141090
O3B FM9                 
1 40351U 14083D   22253.17951427 -.00000028  00000+0  00000+0 0  9998
2 40351   0.0570   8.5462 0002586 162.2250 189.2327  5.00116134141235
DIAMOND RED             
1 42783U 17036U   22253.05810694  .00008867  00000+0  32037-3 0  9994
2 42783  97.1931 290.9788 0011063  38.7254 321.4777 15.28632892289869
DIAMOND GREEN           
1 42785U 17036W   22253.05867735  .00009303  00000+0  33623-3 0  9992
2 42785  97.1935 291.0426 0010899  40.3292 319.8754 15.28610046289934
DIAMOND BLUE            
1 42786U 17036X   22253.05770287  .00009026  00000+0  32635-3 0  9992
2 42786  97.1934 291.0338 0010970  40.6734 319.5323 15.28606125289932
LEO VANTAGE 1           
1 43113U 18004C   22253.20092044  .00001173  00000+0  10158-3 0  9999
2 43113  99.2443 342.2779 0399829 296.7787  59.3029 14.54087347236557
O3B FM15                
1 43231U 18024A   22253.24544916 -.00000028  00000+0  00000+0 0  9996
2 43231   0.0477   8.7819 0002909 163.2592 187.9626  5.00115952 82180
O3B FM16                
1 43232U 18024B   22253.29883574 -.00000028  00000+0  00000+0 0  9998
2 43232   0.0440  10.7840 0002886 161.7431 187.4763  5.00115853 82106
O3B FM14                
1 43233U 18024C   22253.33846449 -.00000028  00000+0  00000+0 0  9994
2 43233   0.0424  10.8083 0002719 163.7769 185.4169  5.00115251 82122
O3B FM13                
1 43234U 18024D   22253.39197200 -.00000028  00000+0  00000+0 0  9995
2 43234   0.0558  31.5286 0003659 147.8680 180.6030  5.00115022 82237
O3B FM20                
1 44112U 19020A   22253.36517665 -.00000028  00000+0  00000+0 0  9996
2 44112   0.0509   7.4850 0003025 171.5608 180.9539  5.00115455 62740
O3B FM19                
1 44113U 19020B   22253.39197198 -.00000028  00000+0  00000+0 0  9995
2 44113   0.0681  23.3287 0001488 163.8697 172.7987  5.00115074 62604
O3B FM17                
1 44114U 19020C   22253.27259738 -.00000028  00000+0  00000+0 0  9992
2 44114   0.0383 347.8002 0003028 184.8198 187.3835  5.00115538 62692
O3B FM18                
1 44115U 19020D   22253.41900949 -.00000028  00000+0  00000+0 0  9996
2 44115   0.0512   7.8097 0002879 162.1409 190.0543  5.00115724 62819
SALSAT                  
1 46495U 20068K   22253.35207342  .00001691  00000+0  12397-3 0  9995
2 46495  97.7335 194.7129 0016224 356.9815   3.1310 15.04808034106951
